{
  "type": "FeatureCollection",
  "features": [
    {
      "type": "Feature",
      "properties": {
        "norad_id": 41772,
        "name": "SKYSAT-C5",
        "group": "resource",
        "lat": -82.84758880346887,
        "lon": 125.45034134241517,
        "alt_km": 468.43987527222544,
        "timestamp": "2025-12-09T09:46:47.304441+00:00",
        "meta_object_name": "SKYSAT-C5",
        "meta_object_id": "2016-058C",
        "meta_epoch": "2025-12-09T02:21:16.658208",
        "meta_mean_motion": 15.35258882,
        "meta_eccentricity": 0.0002267,
        "meta_inclination": 97.0758,
        "meta_ra_of_asc_node": 26.9942,
        "meta_arg_of_pericenter": 143.2849,
        "meta_mean_anomaly": 216.8551,
        "meta_ephemeris_type": 0,
        "meta_classification_type": "U",
        "meta_norad_cat_id": 41772,
        "meta_element_set_no": 999,
        "meta_rev_at_epoch": 51460,
        "meta_bstar": 0.0003512,
        "meta_mean_motion_dot": 0.00011953,
        "meta_mean_motion_ddot": 0,
        "tle_line1": "1 41772U 16058C   25343.09810947  .00011953  00000+0  35120-3 0  9998",
        "tle_line2": "2 41772  97.0758  26.9942 0002267 143.2849 216.8551 15.35258882514600"
      },
      "geometry": {
        "type": "Point",
        "coordinates": [
          125.45034134241517,
          -82.84758880346887
        ]
      }
    },
    {
      "type": "Feature",
      "properties": {
        "norad_id": 41773,
        "name": "SKYSAT-C2",
        "group": "resource",
        "lat": -73.83689416309718,
        "lon": 162.85127410564579,
        "alt_km": 464.53528398037815,
        "timestamp": "2025-12-09T09:46:47.304451+00:00",
        "meta_object_name": "SKYSAT-C2",
        "meta_object_id": "2016-058D",
        "meta_epoch": "2025-12-09T00:51:36.969984",
        "meta_mean_motion": 15.37139367,
        "meta_eccentricity": 0.0004612,
        "meta_inclination": 97.0362,
        "meta_ra_of_asc_node": 7.7195,
        "meta_arg_of_pericenter": 43.8765,
        "meta_mean_anomaly": 316.2846,
        "meta_ephemeris_type": 0,
        "meta_classification_type": "U",
        "meta_norad_cat_id": 41773,
        "meta_element_set_no": 999,
        "meta_rev_at_epoch": 51579,
        "meta_bstar": 0.00037735,
        "meta_mean_motion_dot": 0.00013655,
        "meta_mean_motion_ddot": 0,
        "tle_line1": "1 41773U 16058D   25343.03584456  .00013655  00000+0  37735-3 0  9991",
        "tle_line2": "2 41773  97.0362   7.7195 0004612  43.8765 316.2846 15.37139367515798"
      },
      "geometry": {
        "type": "Point",
        "coordinates": [
          162.85127410564579,
          -73.83689416309718
        ]
      }
    },
    {
      "type": "Feature",
      "properties": {
        "norad_id": 41774,
        "name": "SKYSAT-C3",
        "group": "resource",
        "lat": -1.04564176095699,
        "lon": 17.436083314920268,
        "alt_km": 437.23892047613026,
        "timestamp": "2025-12-09T09:46:47.304466+00:00",
        "meta_object_name": "SKYSAT-C3",
        "meta_object_id": "2016-058E",
        "meta_epoch": "2025-12-09T02:00:29.665152",
        "meta_mean_motion": 15.44198745,
        "meta_eccentricity": 0.0001597,
        "meta_inclination": 96.9299,
        "meta_ra_of_asc_node": 17.0002,
        "meta_arg_of_pericenter": 104.8504,
        "meta_mean_anomaly": 255.2922,
        "meta_ephemeris_type": 0,
        "meta_classification_type": "U",
        "meta_norad_cat_id": 41774,
        "meta_element_set_no": 999,
        "meta_rev_at_epoch": 51669,
        "meta_bstar": 0.00047404,
        "meta_mean_motion_dot": 0.00021701,
        "meta_mean_motion_ddot": 0,
        "tle_line1": "1 41774U 16058E   25343.08367668  .00021701  00000+0  47404-3 0  9996",
        "tle_line2": "2 41774  96.9299  17.0002 0001597 104.8504 255.2922 15.44198745516695"
      },
      "geometry": {
        "type": "Point",
        "coordinates": [
          17.436083314920268,
          -1.04564176095699
        ]
      }
    },
    {
      "type": "Feature",
      "properties": {
        "norad_id": 41785,
        "name": "ALSAT 1B",
        "group": "resource",
        "lat": 2.274345523412126,
        "lon": -4.970321998668729,
        "alt_km": 659.7278471055088,
        "timestamp": "2025-12-09T09:46:47.304478+00:00",
        "meta_object_name": "ALSAT 1B",
        "meta_object_id": "2016-059C",
        "meta_epoch": "2025-12-09T04:52:31.282176",
        "meta_mean_motion": 14.72069586,
        "meta_eccentricity": 0.001059,
        "meta_inclination": 97.781,
        "meta_ra_of_asc_node": 355.1453,
        "meta_arg_of_pericenter": 113.1271,
        "meta_mean_anomaly": 247.1054,
        "meta_ephemeris_type": 0,
        "meta_classification_type": "U",
        "meta_norad_cat_id": 41785,
        "meta_element_set_no": 999,
        "meta_rev_at_epoch": 49262,
        "meta_bstar": 0.00011809,
        "meta_mean_motion_dot": 6.96e-06,
        "meta_mean_motion_ddot": 0,
        "tle_line1": "1 41785U 16059C   25343.20313984  .00000696  00000+0  11809-3 0  9995",
        "tle_line2": "2 41785  97.7810 355.1453 0010590 113.1271 247.1054 14.72069586492620"
      },
      "geometry": {
        "type": "Point",
        "coordinates": [
          -4.970321998668729,
          2.274345523412126
        ]
      }
    },
    {
      "type": "Feature",
      "properties": {
        "norad_id": 41787,
        "name": "PATHFINDER 1",
        "group": "resource",
        "lat": 41.112676268696475,
        "lon": 173.21890314774794,
        "alt_km": 651.9472860231408,
        "timestamp": "2025-12-09T09:46:47.304488+00:00",
        "meta_object_name": "PATHFINDER 1",
        "meta_object_id": "2016-059E",
        "meta_epoch": "2025-12-08T23:20:03.761664",
        "meta_mean_motion": 14.67309943,
        "meta_eccentricity": 0.0030056,
        "meta_inclination": 97.8138,
        "meta_ra_of_asc_node": 345.9207,
        "meta_arg_of_pericenter": 92.6206,
        "meta_mean_anomaly": 267.844,
        "meta_ephemeris_type": 0,
        "meta_classification_type": "U",
        "meta_norad_cat_id": 41787,
        "meta_element_set_no": 999,
        "meta_rev_at_epoch": 49181,
        "meta_bstar": 0.0002191,
        "meta_mean_motion_dot": 1.198e-05,
        "meta_mean_motion_ddot": 0,
        "tle_line1": "1 41787U 16059E   25342.97226576  .00001198  00000+0  21910-3 0  9992",
        "tle_line2": "2 41787  97.8138 345.9207 0030056  92.6206 267.8440 14.67309943491814"
      },
      "geometry": {
        "type": "Point",
        "coordinates": [
          173.21890314774794,
          41.112676268696475
        ]
      }
    },
    {
      "type": "Feature",
      "properties": {
        "norad_id": 41790,
        "name": "SCATSAT 1",
        "group": "resource",
        "lat": -8.899217980884575,
        "lon": 41.32142312679527,
        "alt_km": 669.9004526069093,
        "timestamp": "2025-12-09T09:46:47.304499+00:00",
        "meta_object_name": "SCATSAT 1",
        "meta_object_id": "2016-059H",
        "meta_epoch": "2025-12-09T03:19:31.895040",
        "meta_mean_motion": 14.78916478,
        "meta_eccentricity": 0.005608,
        "meta_inclination": 98.1466,
        "meta_ra_of_asc_node": 39.7639,
        "meta_arg_of_pericenter": 139.3888,
        "meta_mean_anomaly": 221.1527,
        "meta_ephemeris_type": 0,
        "meta_classification_type": "U",
        "meta_norad_cat_id": 41790,
        "meta_element_set_no": 999,
        "meta_rev_at_epoch": 7349,
        "meta_bstar": 0.00029703,
        "meta_mean_motion_dot": 2.192e-05,
        "meta_mean_motion_ddot": 0,
        "tle_line1": "1 41790U 16059H   25343.13856360  .00002192  00000+0  29703-3 0  9998",
        "tle_line2": "2 41790  98.1466  39.7639 0056080 139.3888 221.1527 14.78916478 73491"
      },
      "geometry": {
        "type": "Point",
        "coordinates": [
          41.32142312679527,
          -8.899217980884575
        ]
      }
    },
    {
      "type": "Feature",
      "properties": {
        "norad_id": 41875,
        "name": "GOKTURK 1A",
        "group": "resource",
        "lat": -81.83992298128089,
        "lon": -31.060620866435222,
        "alt_km": 692.4586851592549,
        "timestamp": "2025-12-09T09:46:47.304509+00:00",
        "meta_object_name": "GOKTURK 1A",
        "meta_object_id": "2016-073A",
        "meta_epoch": "2025-12-09T05:16:03.955008",
        "meta_mean_motion": 14.62773914,
        "meta_eccentricity": 0.0001278,
        "meta_inclination": 98.1428,
        "meta_ra_of_asc_node": 235.6314,
        "meta_arg_of_pericenter": 77.0124,
        "meta_mean_anomaly": 283.122,
        "meta_ephemeris_type": 0,
        "meta_classification_type": "U",
        "meta_norad_cat_id": 41875,
        "meta_element_set_no": 999,
        "meta_rev_at_epoch": 48105,
        "meta_bstar": 0.00020639,
        "meta_mean_motion_dot": 1.006e-05,
        "meta_mean_motion_ddot": 0,
        "tle_line1": "1 41875U 16073A   25343.21949022  .00001006  00000+0  20639-3 0  9997",
        "tle_line2": "2 41875  98.1428 235.6314 0001278  77.0124 283.1220 14.62773914481052"
      },
      "geometry": {
        "type": "Point",
        "coordinates": [
          -31.060620866435222,
          -81.83992298128089
        ]
      }
    }
  ]
}